[
    {
        "Altitude(m)": 708477.1271591373,
        "Argument of Periapsis(deg)": 0.0022780242373254137,
        "Eccentricity": 0.0,
        "Inclination(deg)": 45.0,
        "Latitude(deg)": -21.137409022842668,
        "Longitude(deg)": -92.74537214132383,
        "Mean Anomaly(deg)": 329.5793433294961,
        "RAAN(deg)": 29.997849611708354,
        "Satellite Name": "Constellation 1 152",
        "Satellite Number": 152,
        "Semi-Major Axis(m)": 7083131.272910544,
        "Time(s)": 38
    },
    {
        "Altitude(m)": 708463.80155613,
        "Argument of Periapsis(deg)": 0.002337972243570819,
        "Eccentricity": 0.0,
        "Inclination(deg)": 45.0,
        "Latitude(deg)": -21.097603983539138,
        "Longitude(deg)": -92.70032874682126,
        "Mean Anomaly(deg)": 329.64004446974604,
        "RAAN(deg)": 29.997793022542787,
        "Satellite Name": "Constellation 1 152",
        "Satellite Number": 152,
        "Semi-Major Axis(m)": 7083131.272910544,
        "Time(s)": 39
    },
    {
        "Altitude(m)": 708450.482918668,
        "Argument of Periapsis(deg)": 0.0023979202498162246,
        "Eccentricity": 0.0,
        "Inclination(deg)": 45.0,
        "Latitude(deg)": -21.05778443183316,
        "Longitude(deg)": -92.65531141329132,
        "Mean Anomaly(deg)": 329.700745609996,
        "RAAN(deg)": 29.99773643337722,
        "Satellite Name": "Constellation 1 152",
        "Satellite Number": 152,
        "Semi-Major Axis(m)": 7083131.272910544,
        "Time(s)": 40
    },
    {
        "Altitude(m)": 708437.1712904514,
        "Argument of Periapsis(deg)": 0.00245786825606163,
        "Eccentricity": 0.0,
        "Inclination(deg)": 45.0,
        "Latitude(deg)": -21.017950404688822,
        "Longitude(deg)": -92.61032008222837,
        "Mean Anomaly(deg)": 329.76144675024585,
        "RAAN(deg)": 29.997679844211646,
        "Satellite Name": "Constellation 1 152",
        "Satellite Number": 152,
        "Semi-Major Axis(m)": 7083131.272910544,
        "Time(s)": 41
    },
    {
        "Altitude(m)": 708423.8667151539,
        "Argument of Periapsis(deg)": 0.002517816262307036,
        "Eccentricity": 0.0,
        "Inclination(deg)": 45.0,
        "Latitude(deg)": -20.97810193901959,
        "Longitude(deg)": -92.56535469515171,
        "Mean Anomaly(deg)": 329.8221478904957,
        "RAAN(deg)": 29.997623255046083,
        "Satellite Name": "Constellation 1 152",
        "Satellite Number": 152,
        "Semi-Major Axis(m)": 7083131.272910544,
        "Time(s)": 42
    },
    {
        "Altitude(m)": 708410.5692363974,
        "Argument of Periapsis(deg)": 0.0025777642685524413,
        "Eccentricity": 0.0,
        "Inclination(deg)": 45.0,
        "Latitude(deg)": -20.938239071688045,
        "Longitude(deg)": -92.52041519360543,
        "Mean Anomaly(deg)": 329.8828490307457,
        "RAAN(deg)": 29.99756666588051,
        "Satellite Name": "Constellation 1 152",
        "Satellite Number": 152,
        "Semi-Major Axis(m)": 7083131.272910544,
        "Time(s)": 43
    },
    {
        "Altitude(m)": 708397.2788977653,
        "Argument of Periapsis(deg)": 0.002637712274797847,
        "Eccentricity": 0.0,
        "Inclination(deg)": 45.0,
        "Latitude(deg)": -20.8983618395064,
        "Longitude(deg)": -92.47550168725597,
        "Mean Anomaly(deg)": 329.94355017099554,
        "RAAN(deg)": 29.99751007671494,
        "Satellite Name": "Constellation 1 152",
        "Satellite Number": 152,
        "Semi-Major Axis(m)": 7083131.272910544,
        "Time(s)": 44
    },
    {
        "Altitude(m)": 708383.9957428069,
        "Argument of Periapsis(deg)": 0.0026976602810432526,
        "Eccentricity": 0.0,
        "Inclination(deg)": 45.0,
        "Latitude(deg)": -20.858470279236236,
        "Longitude(deg)": -92.43061378150301,
        "Mean Anomaly(deg)": -29.99574868875454,
        "RAAN(deg)": 29.997453487549365,
        "Satellite Name": "Constellation 1 152",
        "Satellite Number": 152,
        "Semi-Major Axis(m)": 7083131.272910544,
        "Time(s)": 45
    },
    {
        "Altitude(m)": 708370.7198150161,
        "Argument of Periapsis(deg)": 0.0027576082872886585,
        "Eccentricity": 0.0,
        "Inclination(deg)": 45.0,
        "Latitude(deg)": -20.818564427588928,
        "Longitude(deg)": -92.38575158606332,
        "Mean Anomaly(deg)": -29.935047548504684,
        "RAAN(deg)": 29.9973968983838,
        "Satellite Name": "Constellation 1 152",
        "Satellite Number": 152,
        "Semi-Major Axis(m)": 7083131.272910544,
        "Time(s)": 46
    },
    {
        "Altitude(m)": 708357.4511578595,
        "Argument of Periapsis(deg)": 0.0028175562935340644,
        "Eccentricity": 0.0,
        "Inclination(deg)": 45.0,
        "Latitude(deg)": -20.778644321225396,
        "Longitude(deg)": -92.34091504258147,
        "Mean Anomaly(deg)": -29.874346408254723,
        "RAAN(deg)": 29.997340309218227,
        "Satellite Name": "Constellation 1 152",
        "Satellite Number": 152,
        "Semi-Major Axis(m)": 7083131.272910544,
        "Time(s)": 47
    },
    {
        "Altitude(m)": 708344.1898147527,
        "Argument of Periapsis(deg)": 0.00287750429977947,
        "Eccentricity": 0.0,
        "Inclination(deg)": 45.0,
        "Latitude(deg)": -20.738709996756704,
        "Longitude(deg)": -92.29610409272773,
        "Mean Anomaly(deg)": -29.813645268004812,
        "RAAN(deg)": 29.99728372005266,
        "Satellite Name": "Constellation 1 152",
        "Satellite Number": 152,
        "Semi-Major Axis(m)": 7083131.272910544,
        "Time(s)": 48
    },
    {
        "Altitude(m)": 708330.9358290712,
        "Argument of Periapsis(deg)": 0.002937452306024875,
        "Eccentricity": 0.0,
        "Inclination(deg)": 45.0,
        "Latitude(deg)": -20.698761490743774,
        "Longitude(deg)": -92.25131867819773,
        "Mean Anomaly(deg)": -29.752944127754997,
        "RAAN(deg)": 29.99722713088709,
        "Satellite Name": "Constellation 1 152",
        "Satellite Number": 152,
        "Semi-Major Axis(m)": 7083131.272910544,
        "Time(s)": 49
    },
    {
        "Altitude(m)": 708317.6892441505,
        "Argument of Periapsis(deg)": 0.0029974003122702807,
        "Eccentricity": 0.0,
        "Inclination(deg)": 45.0,
        "Latitude(deg)": -20.658798839697507,
        "Longitude(deg)": -92.20655874071268,
        "Mean Anomaly(deg)": -29.692242987505097,
        "RAAN(deg)": 29.997170541721523,
        "Satellite Name": "Constellation 1 152",
        "Satellite Number": 152,
        "Semi-Major Axis(m)": 7083131.272910544,
        "Time(s)": 50
    },
    {
        "Altitude(m)": 708304.4501032782,
        "Argument of Periapsis(deg)": 0.0030573483185156866,
        "Eccentricity": 0.0,
        "Inclination(deg)": 45.0,
        "Latitude(deg)": -20.618822080079187,
        "Longitude(deg)": -92.16182422201955,
        "Mean Anomaly(deg)": -29.631541847255132,
        "RAAN(deg)": 29.99711395255595,
        "Satellite Name": "Constellation 1 152",
        "Satellite Number": 152,
        "Semi-Major Axis(m)": 7083131.272910544,
        "Time(s)": 51
    },
    {
        "Altitude(m)": 708291.2184497071,
        "Argument of Periapsis(deg)": 0.003117296324761092,
        "Eccentricity": 0.0,
        "Inclination(deg)": 45.0,
        "Latitude(deg)": -20.578831248300443,
        "Longitude(deg)": -92.11711523198838,
        "Mean Anomaly(deg)": -29.570840707005225,
        "RAAN(deg)": 29.997057363390386,
        "Satellite Name": "Constellation 1 152",
        "Satellite Number": 152,
        "Semi-Major Axis(m)": 7083131.272910544,
        "Time(s)": 52
    },
    {
        "Altitude(m)": 708277.9943266376,
        "Argument of Periapsis(deg)": 0.0031772443310064975,
        "Eccentricity": 0.0,
        "Inclination(deg)": 45.0,
        "Latitude(deg)": -20.53882638072339,
        "Longitude(deg)": -92.07243137622365,
        "Mean Anomaly(deg)": -29.51013956675536,
        "RAAN(deg)": 29.997000774224812,
        "Satellite Name": "Constellation 1 152",
        "Satellite Number": 152,
        "Semi-Major Axis(m)": 7083131.272910544,
        "Time(s)": 53
    },
    {
        "Altitude(m)": 708264.7777772408,
        "Argument of Periapsis(deg)": 0.0032371923372519038,
        "Eccentricity": 0.0,
        "Inclination(deg)": 45.0,
        "Latitude(deg)": -20.498807513660502,
        "Longitude(deg)": -92.02777276464718,
        "Mean Anomaly(deg)": -29.449438426505456,
        "RAAN(deg)": 29.996944185059245,
        "Satellite Name": "Constellation 1 152",
        "Satellite Number": 152,
        "Semi-Major Axis(m)": 7083131.272910544,
        "Time(s)": 54
    },
    {
        "Altitude(m)": 708251.5688446332,
        "Argument of Periapsis(deg)": 0.0032971403434973088,
        "Eccentricity": 0.0,
        "Inclination(deg)": 45.0,
        "Latitude(deg)": -20.458774683375125,
        "Longitude(deg)": -91.98313933910981,
        "Mean Anomaly(deg)": -29.388737286255544,
        "RAAN(deg)": 29.99688759589367,
        "Satellite Name": "Constellation 1 152",
        "Satellite Number": 152,
        "Semi-Major Axis(m)": 7083131.272910544,
        "Time(s)": 55
    },
    {
        "Altitude(m)": 708238.3675718855,
        "Argument of Periapsis(deg)": 0.0033570883497427146,
        "Eccentricity": 0.0,
        "Inclination(deg)": 45.0,
        "Latitude(deg)": -20.418727926081345,
        "Longitude(deg)": -91.93853104148874,
        "Mean Anomaly(deg)": -29.328036146005687,
        "RAAN(deg)": 29.996831006728108,
        "Satellite Name": "Constellation 1 152",
        "Satellite Number": 152,
        "Semi-Major Axis(m)": 7083131.272910544,
        "Time(s)": 56
    }
]